[{"OBJECT_NAME":"STARLINK-1347","OBJECT_ID":"2020-025BH","EPOCH":"2026-03-09T07:06:35.755488","MEAN_MOTION":15.5392029,"ECCENTRICITY":0.00059618,"INCLINATION":53.0473,"RA_OF_ASC_NODE":31.3863,"ARG_OF_PERICENTER":61.4804,"MEAN_ANOMALY":298.6806,"EPHEMERIS_TYPE":0,"CLASSIFICATION_TYPE":"U","NORAD_CAT_ID":45586,"ELEMENT_SET_NO":999,"REV_AT_EPOCH":32610,"BSTAR":0.001568397,"MEAN_MOTION_DOT":0.00103845,"MEAN_MOTION_DDOT":0},{"OBJECT_NAME":"FLOCK 4Q-23","OBJECT_ID":"2023-174BD","EPOCH":"2026-03-09T22:52:39.857376","MEAN_MOTION":15.55369976,"ECCENTRICITY":0.00068869,"INCLINATION":97.3949,"RA_OF_ASC_NODE":159.4803,"ARG_OF_PERICENTER":139.7174,"MEAN_ANOMALY":220.4591,"EPHEMERIS_TYPE":0,"CLASSIFICATION_TYPE":"U","NORAD_CAT_ID":58307,"ELEMENT_SET_NO":999,"REV_AT_EPOCH":13047,"BSTAR":0.00072885408,"MEAN_MOTION_DOT":0.00049706,"MEAN_MOTION_DDOT":0}]
